start=new Date('2023-01-30T00:00:00.000Z').valueOf();
sats=[{"LAUNCH_DATE":"2022-06-17","NORAD_CAT_ID":"52872","SEMIMAJOR_AXIS":"6917.879","REV_AT_EPOCH":"3473","TLE_LINE2":"2 52872  53.2182  68.7735 0000871  96.0559 264.0532 15.08840591 34733","OBJECT_ID":"2022-062AU","EPOCH":"2023-01-29T19:30:39.854592","DECAY_DATE":null,"PERIAPSIS":"539.141","ARG_OF_PERICENTER":"96.0559","APOAPSIS":"540.346","REF_FRAME":"TEME","INCLINATION":"53.2182","FILE":"3765015","SITE":"AFETR","CENTER_NAME":"EARTH","TIME_SYSTEM":"UTC","MEAN_ELEMENT_THEORY":"SGP4","RA_OF_ASC_NODE":"68.7735","ECCENTRICITY":"0.00008710","CLASSIFICATION_TYPE":"U","MEAN_ANOMALY":"264.0532","EPHEMERIS_TYPE":"0","OBJECT_NAME":"STARLINK-4213","TLE_LINE1":"1 52872U 22062AU  23029.81296128  .00000473  00000-0  47765-4 0  9996","RCS_SIZE":"LARGE","OBJECT_TYPE":"PAYLOAD","MEAN_MOTION_DDOT":"0.0000000000000","COUNTRY_CODE":"US","MEAN_MOTION_DOT":"0.00000473","PERIOD":"95.438","MEAN_MOTION":"15.08840591","BSTAR":"0.00004776500000","ELEMENT_SET_NO":"999","GP_ID":"223956978"},{"MEAN_MOTION_DDOT":"0.0000000000000","OBJECT_TYPE":"PAYLOAD","RCS_SIZE":"LARGE","TLE_LINE1":"1 52873U 22062AV  23029.79824260  .00001928  00000-0  13918-3 0  9996","OBJECT_NAME":"STARLINK-4211","MEAN_ANOMALY":"274.7792","EPHEMERIS_TYPE":"0","CLASSIFICATION_TYPE":"U","ECCENTRICITY":"0.00014720","ELEMENT_SET_NO":"999","GP_ID":"223957228","BSTAR":"0.00013918000000","MEAN_MOTION":"15.08840226","PERIOD":"95.438","MEAN_MOTION_DOT":"0.00001928","COUNTRY_CODE":"US","ARG_OF_PERICENTER":"85.3368","PERIAPSIS":"538.726","DECAY_DATE":null,"EPOCH":"2023-01-29T19:09:28.160640","TLE_LINE2":"2 52873  53.2171  68.8497 0001472  85.3368 274.7792 15.08840226 34736","OBJECT_ID":"2022-062AV","REV_AT_EPOCH":"3473","SEMIMAJOR_AXIS":"6917.880","NORAD_CAT_ID":"52873","LAUNCH_DATE":"2022-06-17","RA_OF_ASC_NODE":"68.8497","CENTER_NAME":"EARTH","TIME_SYSTEM":"UTC","MEAN_ELEMENT_THEORY":"SGP4","SITE":"AFETR","FILE":"3765015","REF_FRAME":"TEME","INCLINATION":"53.2171","APOAPSIS":"540.763"},{"PERIAPSIS":"539.101","ARG_OF_PERICENTER":"81.2124","DECAY_DATE":null,"EPOCH":"2023-01-29T19:25:21.705600","LAUNCH_DATE":"2022-06-17","NORAD_CAT_ID":"52874","SEMIMAJOR_AXIS":"6917.878","REV_AT_EPOCH":"3473","TLE_LINE2":"2 52874  53.2158  68.7894 0000928  81.2124 278.8973 15.08840873 34736","OBJECT_ID":"2022-062AW","TIME_SYSTEM":"UTC","MEAN_ELEMENT_THEORY":"SGP4","CENTER_NAME":"EARTH","RA_OF_ASC_NODE":"68.7894","FILE":"3765015","SITE":"AFETR","APOAPSIS":"540.385","REF_FRAME":"TEME","INCLINATION":"53.2158","MEAN_MOTION_DDOT":"0.0000000000000","RCS_SIZE":"LARGE","OBJECT_TYPE":"PAYLOAD","CLASSIFICATION_TYPE":"U","MEAN_ANOMALY":"278.8973","EPHEMERIS_TYPE":"0","OBJECT_NAME":"STARLINK-4210","TLE_LINE1":"1 52874U 22062AW  23029.80927900 -.00000840  00000-0 -34721-4 0  9994","ECCENTRICITY":"0.00009280","ELEMENT_SET_NO":"999","GP_ID":"223957980","MEAN_MOTION":"15.08840873","BSTAR":"-0.00003472100000","MEAN_MOTION_DOT":"-0.00000840","PERIOD":"95.437","COUNTRY_CODE":"US"},{"OBJECT_NAME":"STARLINK-4193","TLE_LINE1":"1 52875U 22062AX  23029.79456313  .00000366  00000-0  41100-4 0  9998","CLASSIFICATION_TYPE":"U","MEAN_ANOMALY":"260.7906","EPHEMERIS_TYPE":"0","ECCENTRICITY":"0.00010360","MEAN_MOTION_DDOT":"0.0000000000000","OBJECT_TYPE":"PAYLOAD","RCS_SIZE":"LARGE","PERIOD":"95.438","MEAN_MOTION_DOT":"0.00000366","COUNTRY_CODE":"US","ELEMENT_SET_NO":"999","GP_ID":"223958730","MEAN_MOTION":"15.08834515","BSTAR":"0.00004110000000","EPOCH":"2023-01-29T19:04:10.254432","SEMIMAJOR_AXIS":"6917.897","REV_AT_EPOCH":"3473","OBJECT_ID":"2022-062AX","TLE_LINE2":"2 52875  53.2169  68.8634 0001036  99.3203 260.7906 15.08834515 34733","LAUNCH_DATE":"2022-06-17","NORAD_CAT_ID":"52875","ARG_OF_PERICENTER":"99.3203","PERIAPSIS":"539.045","DECAY_DATE":null,"APOAPSIS":"540.479","INCLINATION":"53.2169","REF_FRAME":"TEME","CENTER_NAME":"EARTH","MEAN_ELEMENT_THEORY":"SGP4","TIME_SYSTEM":"UTC","RA_OF_ASC_NODE":"68.8634","SITE":"AFETR","FILE":"3765015"},{"BSTAR":"0.00006814500000","MEAN_MOTION":"15.08832999","GP_ID":"223957478","ELEMENT_SET_NO":"999","COUNTRY_CODE":"US","PERIOD":"95.438","MEAN_MOTION_DOT":"0.00000797","OBJECT_TYPE":"PAYLOAD","RCS_SIZE":"LARGE","MEAN_MOTION_DDOT":"0.0000000000000","ECCENTRICITY":"0.00011430","TLE_LINE1":"1 52876U 22062AY  23029.80192539  .00000797  00000-0  68145-4 0  9994","OBJECT_NAME":"STARLINK-4200","MEAN_ANOMALY":"272.8856","EPHEMERIS_TYPE":"0","CLASSIFICATION_TYPE":"U","SITE":"AFETR","FILE":"3765015","RA_OF_ASC_NODE":"68.8241","CENTER_NAME":"EARTH","TIME_SYSTEM":"UTC","MEAN_ELEMENT_THEORY":"SGP4","REF_FRAME":"TEME","INCLINATION":"53.2181","APOAPSIS":"540.558","DECAY_DATE":null,"ARG_OF_PERICENTER":"87.2266","PERIAPSIS":"538.976","OBJECT_ID":"2022-062AY","TLE_LINE2":"2 52876  53.2181  68.8241 0001143  87.2266 272.8856 15.08832999 34738","SEMIMAJOR_AXIS":"6917.902","REV_AT_EPOCH":"3473","NORAD_CAT_ID":"52876","LAUNCH_DATE":"2022-06-17","EPOCH":"2023-01-29T19:14:46.353696"},{"ELEMENT_SET_NO":"999","GP_ID":"223957728","MEAN_MOTION":"15.08843790","BSTAR":"0.00007391600000","MEAN_MOTION_DOT":"0.00000889","PERIOD":"95.437","COUNTRY_CODE":"US","MEAN_MOTION_DDOT":"0.0000000000000","RCS_SIZE":"LARGE","OBJECT_TYPE":"PAYLOAD","MEAN_ANOMALY":"269.5890","EPHEMERIS_TYPE":"0","CLASSIFICATION_TYPE":"U","TLE_LINE1":"1 52877U 22062AZ  23029.83503703  .00000889  00000-0  73916-4 0  9991","OBJECT_NAME":"STARLINK-4214","ECCENTRICITY":"0.00011860","RA_OF_ASC_NODE":"68.6765","MEAN_ELEMENT_THEORY":"SGP4","CENTER_NAME":"EARTH","TIME_SYSTEM":"UTC","FILE":"3765015","SITE":"AFETR","REF_FRAME":"TEME","INCLINATION":"53.2174","APOAPSIS":"540.554","PERIAPSIS":"538.913","ARG_OF_PERICENTER":"90.5239","DECAY_DATE":null,"EPOCH":"2023-01-29T20:02:27.199392","NORAD_CAT_ID":"52877","LAUNCH_DATE":"2022-06-17","TLE_LINE2":"2 52877  53.2174  68.6765 0001186  90.5239 269.5890 15.08843790 34747","OBJECT_ID":"2022-062AZ","REV_AT_EPOCH":"3474","SEMIMAJOR_AXIS":"6917.869"},{"OBJECT_NAME":"STARLINK-4171","TLE_LINE1":"1 52878U 22062BA  23029.52591765  .00000389  00000-0  42498-4 0  9999","CLASSIFICATION_TYPE":"U","MEAN_ANOMALY":"255.4652","EPHEMERIS_TYPE":"0","ECCENTRICITY":"0.00014390","MEAN_MOTION_DDOT":"0.0000000000000","OBJECT_TYPE":"PAYLOAD","RCS_SIZE":"LARGE","PERIOD":"95.437","MEAN_MOTION_DOT":"0.00000389","COUNTRY_CODE":"US","GP_ID":"223958480","ELEMENT_SET_NO":"999","MEAN_MOTION":"15.08843109","BSTAR":"0.00004249800000","EPOCH":"2023-01-29T12:37:19.284960","REV_AT_EPOCH":"3469","SEMIMAJOR_AXIS":"6917.871","TLE_LINE2":"2 52878  53.2168  70.0640 0001439 104.6500 255.4652 15.08843109 34697","OBJECT_ID":"2022-062BA","LAUNCH_DATE":"2022-06-17","NORAD_CAT_ID":"52878","PERIAPSIS":"538.740","ARG_OF_PERICENTER":"104.6500","DECAY_DATE":null,"APOAPSIS":"540.731","INCLINATION":"53.2168","REF_FRAME":"TEME","TIME_SYSTEM":"UTC","CENTER_NAME":"EARTH","MEAN_ELEMENT_THEORY":"SGP4","RA_OF_ASC_NODE":"70.0640","SITE":"AFETR","FILE":"3765015"},{"EPOCH":"2023-01-29T19:46:33.726144","SEMIMAJOR_AXIS":"6917.874","REV_AT_EPOCH":"3523","OBJECT_ID":"2022-062BB","TLE_LINE2":"2 52879  53.2172  68.7303 0001212  89.8270 270.2861 15.08842249 35232","LAUNCH_DATE":"2022-06-17","NORAD_CAT_ID":"52879","PERIAPSIS":"538.900","ARG_OF_PERICENTER":"89.8270","DECAY_DATE":null,"APOAPSIS":"540.577","INCLINATION":"53.2172","REF_FRAME":"TEME","TIME_SYSTEM":"UTC","CENTER_NAME":"EARTH","MEAN_ELEMENT_THEORY":"SGP4","RA_OF_ASC_NODE":"68.7303","SITE":"AFETR","FILE":"3764957","OBJECT_NAME":"STARLINK-4139","TLE_LINE1":"1 52879U 22062BB  23029.82400146  .00003462  00000-0  23547-3 0  9993","CLASSIFICATION_TYPE":"U","MEAN_ANOMALY":"270.2861","EPHEMERIS_TYPE":"0","ECCENTRICITY":"0.00012120","MEAN_MOTION_DDOT":"0.0000000000000","OBJECT_TYPE":"PAYLOAD","RCS_SIZE":"LARGE","PERIOD":"95.437","MEAN_MOTION_DOT":"0.00003462","COUNTRY_CODE":"US","GP_ID":"223933096","ELEMENT_SET_NO":"999","BSTAR":"0.00023547000000","MEAN_MOTION":"15.08842249"},{"TLE_LINE2":"2 52880  53.2184  68.7190 0001447  85.8711 274.2447 15.08840279 34747","OBJECT_ID":"2022-062BC","SEMIMAJOR_AXIS":"6917.880","REV_AT_EPOCH":"3474","NORAD_CAT_ID":"52880","LAUNCH_DATE":"2022-06-17","EPOCH":"2023-01-29T19:51:51.813792","DECAY_DATE":null,"ARG_OF_PERICENTER":"85.8711","PERIAPSIS":"538.744","INCLINATION":"53.2184","REF_FRAME":"TEME","APOAPSIS":"540.746","SITE":"AFETR","FILE":"3765015","RA_OF_ASC_NODE":"68.7190","MEAN_ELEMENT_THEORY":"SGP4","TIME_SYSTEM":"UTC","CENTER_NAME":"EARTH","ECCENTRICITY":"0.00014470","TLE_LINE1":"1 52880U 22062BC  23029.82768303  .00000656  00000-0  59332-4 0  9991","OBJECT_NAME":"STARLINK-4186","EPHEMERIS_TYPE":"0","MEAN_ANOMALY":"274.2447","CLASSIFICATION_TYPE":"U","OBJECT_TYPE":"PAYLOAD","RCS_SIZE":"LARGE","MEAN_MOTION_DDOT":"0.0000000000000","COUNTRY_CODE":"US","PERIOD":"95.438","MEAN_MOTION_DOT":"0.00000656","BSTAR":"0.00005933200000","MEAN_MOTION":"15.08840279","GP_ID":"223956979","ELEMENT_SET_NO":"999"},{"DECAY_DATE":null,"ARG_OF_PERICENTER":"101.1657","PERIAPSIS":"538.864","SEMIMAJOR_AXIS":"6917.896","REV_AT_EPOCH":"3523","TLE_LINE2":"2 52881  53.2180  68.7020 0001297 101.1657 258.9481 15.08834897 35231","OBJECT_ID":"2022-062BD","LAUNCH_DATE":"2022-06-17","NORAD_CAT_ID":"52881","EPOCH":"2023-01-29T19:57:09.861696","SITE":"AFETR","FILE":"3764957","CENTER_NAME":"EARTH","TIME_SYSTEM":"UTC","MEAN_ELEMENT_THEORY":"SGP4","RA_OF_ASC_NODE":"68.7020","APOAPSIS":"540.658","INCLINATION":"53.2180","REF_FRAME":"TEME","OBJECT_TYPE":"PAYLOAD","RCS_SIZE":"LARGE","MEAN_MOTION_DDOT":"0.0000000000000","ECCENTRICITY":"0.00012970","OBJECT_NAME":"STARLINK-4192","TLE_LINE1":"1 52881U 22062BD  23029.83136414  .00000473  00000-0  47800-4 0  9999","CLASSIFICATION_TYPE":"U","MEAN_ANOMALY":"258.9481","EPHEMERIS_TYPE":"0","MEAN_MOTION":"15.08834897","BSTAR":"0.00004780000000","ELEMENT_SET_NO":"999","GP_ID":"223933243","COUNTRY_CODE":"US","PERIOD":"95.438","MEAN_MOTION_DOT":"0.00000473"}];
